[{"OBJECT_NAME":"VNREDSAT 1","OBJECT_ID":"2013-021B","EPOCH":"2026-03-09T23:27:54.067104","MEAN_MOTION":14.6507341,"ECCENTRICITY":0.00016268,"INCLINATION":97.921,"RA_OF_ASC_NODE":126.138,"ARG_OF_PERICENTER":85.4971,"MEAN_ANOMALY":274.6418,"EPHEMERIS_TYPE":0,"CLASSIFICATION_TYPE":"U","NORAD_CAT_ID":39160,"ELEMENT_SET_NO":999,"REV_AT_EPOCH":68576,"BSTAR":0.00011871025,"MEAN_MOTION_DOT":5.92e-6,"MEAN_MOTION_DDOT":0},{"OBJECT_NAME":"OPS 0340","OBJECT_ID":"1966-026A","EPOCH":"2026-03-09T21:24:39.157632","MEAN_MOTION":14.60625581,"ECCENTRICITY":0.01463871,"INCLINATION":98.0227,"RA_OF_ASC_NODE":240.1512,"ARG_OF_PERICENTER":195.7309,"MEAN_ANOMALY":163.932,"EPHEMERIS_TYPE":0,"CLASSIFICATION_TYPE":"U","NORAD_CAT_ID":2125,"ELEMENT_SET_NO":999,"REV_AT_EPOCH":14505,"BSTAR":0.00028150195,"MEAN_MOTION_DOT":1.54e-5,"MEAN_MOTION_DDOT":0}]
